[
  {
    "name": "ONEWEB-0275",
    "noradId": "48993",
    "line1": "1 48993U 21060AC  26187.15267016 -.00000044  00000+0 -14748-3 0  9990",
    "line2": "2 48993  87.9081 225.0091 0001958  96.2009 263.9345 13.16594833242054"
  },
  {
    "name": "ONEWEB-0276",
    "noradId": "48994",
    "line1": "1 48994U 21060AD  26187.18592115  .00000006  00000+0 -18499-4 0  9990",
    "line2": "2 48994  87.9083 225.0015 0001907  93.4381 266.6968 13.16593292242070"
  },
  {
    "name": "ONEWEB-0277",
    "noradId": "48995",
    "line1": "1 48995U 21060AE  26187.12260061  .00000003  00000+0 -24902-4 0  9990",
    "line2": "2 48995  87.9076 225.0216 0002058  99.1334 261.0030 13.16595074242052"
  },
  {
    "name": "ONEWEB-0278",
    "noradId": "48996",
    "line1": "1 48996U 21060AF  26187.11309105  .00000065  00000+0  13636-3 0  9991",
    "line2": "2 48996  87.9083 225.0154 0002267  91.8988 268.2403 13.16593889242187"
  },
  {
    "name": "ONEWEB-0279",
    "noradId": "48997",
    "line1": "1 48997U 21060AG  26187.12100648 -.00000015  00000+0 -71626-4 0  9995",
    "line2": "2 48997  87.9083 225.0117 0001910 100.4406 259.6941 13.16593927242110"
  },
  {
    "name": "ONEWEB-0280",
    "noradId": "48998",
    "line1": "1 48998U 21060AH  26187.13604782 -.00000048  00000+0 -15825-3 0  9999",
    "line2": "2 48998  87.9082 225.0131 0002383  99.3296 260.8105 13.16594653242050"
  },
  {
    "name": "ONEWEB-0281",
    "noradId": "48999",
    "line1": "1 48999U 21060AJ  26187.14158550 -.00000088  00000+0 -26488-3 0  9999",
    "line2": "2 48999  87.9083 225.0075 0002127  93.9394 266.1981 13.16593286242124"
  },
  {
    "name": "ONEWEB-0282",
    "noradId": "49000",
    "line1": "1 49000U 21060AK  26187.17167326  .00000063  00000+0  13184-3 0  9997",
    "line2": "2 49000  87.9081 225.0092 0002123  98.6521 261.4850 13.16594268242107"
  },
  {
    "name": "ONEWEB-0283",
    "noradId": "49001",
    "line1": "1 49001U 21060AL  26187.16057834  .00000083  00000+0  18281-3 0  9994",
    "line2": "2 49001  87.9079 225.0109 0001963  98.7816 261.3537 13.16593275242112"
  },
  {
    "name": "ONEWEB-0284",
    "noradId": "49002",
    "line1": "1 49002U 21060AM  26187.15425841  .00000017  00000+0  10970-4 0  9996",
    "line2": "2 49002  87.9082 225.0059 0002394  95.9803 264.1600 13.16593424242090"
  },
  {
    "name": "ONEWEB-0285",
    "noradId": "49075",
    "line1": "1 49075U 21075A   26186.96710308  .00000259  00000+0  68399-3 0  9990",
    "line2": "2 49075  87.8961 346.9275 0001773  92.0759 268.0573 13.12445846237676"
  },
  {
    "name": "ONEWEB-0286",
    "noradId": "49076",
    "line1": "1 49076U 21075B   26186.94915944 -.00000102  00000+0 -31779-3 0  9993",
    "line2": "2 49076  87.8950 346.9461 0001830  87.2767 272.8571 13.12443321237027"
  },
  {
    "name": "ONEWEB-0287",
    "noradId": "49077",
    "line1": "1 49077U 21075C   26186.99881127 -.00000064  00000+0 -19844-3 0  9990",
    "line2": "2 49077  87.9135   2.1227 0002070  79.4028 280.7336 13.17648621236105"
  },
  {
    "name": "ONEWEB-0288",
    "noradId": "49078",
    "line1": "1 49078U 21075D   26187.00180660 -.00000219  00000+0 -64458-3 0  9991",
    "line2": "2 49078  87.8960 346.9136 0002009  89.6071 270.5288 13.12441020237655"
  },
  {
    "name": "ONEWEB-0289",
    "noradId": "49079",
    "line1": "1 49079U 21075E   26187.03749851 -.00000885  00000+0 -23113-2 0  9999",
    "line2": "2 49079  87.9144   2.1330 0001953 100.2388 259.8964 13.17654247236681"
  },
  {
    "name": "ONEWEB-0290",
    "noradId": "49080",
    "line1": "1 49080U 21075F   26186.93470367  .00000067  00000+0  13859-3 0  9999",
    "line2": "2 49080  87.9145   2.1258 0002261 100.9388 259.1998 13.17649999236085"
  }
]