{"fetched_at":"2026-07-06T18:35:14.557Z","source":"https://celestrak.org/NORAD/elements/gp.php?GROUP=oneweb&FORMAT=JSON","constellation":"oneweb","records":[{"OBJECT_NAME":"ONEWEB-0275","OBJECT_ID":"2021-060AC","EPOCH":"2026-07-06T03:39:50.701824","CLASSIFICATION_TYPE":"U","MEAN_MOTION":13.16594833,"ECCENTRICITY":0.00019581,"INCLINATION":87.9081,"RA_OF_ASC_NODE":225.0091,"ARG_OF_PERICENTER":96.2009,"MEAN_ANOMALY":263.9345,"EPHEMERIS_TYPE":0,"NORAD_CAT_ID":48993,"ELEMENT_SET_NO":999,"REV_AT_EPOCH":24205,"BSTAR":-0.00014748358,"MEAN_MOTION_DOT":-4.4e-7,"MEAN_MOTION_DDOT":0},{"OBJECT_NAME":"ONEWEB-0276","OBJECT_ID":"2021-060AD","EPOCH":"2026-07-06T04:27:43.587360","CLASSIFICATION_TYPE":"U","MEAN_MOTION":13.16593292,"ECCENTRICITY":0.0001907,"INCLINATION":87.9083,"RA_OF_ASC_NODE":225.0015,"ARG_OF_PERICENTER":93.4381,"MEAN_ANOMALY":266.6968,"EPHEMERIS_TYPE":0,"NORAD_CAT_ID":48994,"ELEMENT_SET_NO":999,"REV_AT_EPOCH":24207,"BSTAR":-0.000018498651,"MEAN_MOTION_DOT":6e-8,"MEAN_MOTION_DDOT":0},{"OBJECT_NAME":"ONEWEB-0277","OBJECT_ID":"2021-060AE","EPOCH":"2026-07-06T02:56:32.692704","CLASSIFICATION_TYPE":"U","MEAN_MOTION":13.16595074,"ECCENTRICITY":0.00020588,"INCLINATION":87.9076,"RA_OF_ASC_NODE":225.0216,"ARG_OF_PERICENTER":99.1334,"MEAN_ANOMALY":261.003,"EPHEMERIS_TYPE":0,"NORAD_CAT_ID":48995,"ELEMENT_SET_NO":999,"REV_AT_EPOCH":24205,"BSTAR":-0.000024901794,"MEAN_MOTION_DOT":3e-8,"MEAN_MOTION_DDOT":0},{"OBJECT_NAME":"ONEWEB-0278","OBJECT_ID":"2021-060AF","EPOCH":"2026-07-06T02:42:51.066720","CLASSIFICATION_TYPE":"U","MEAN_MOTION":13.16593889,"ECCENTRICITY":0.00022679,"INCLINATION":87.9083,"RA_OF_ASC_NODE":225.0154,"ARG_OF_PERICENTER":91.8988,"MEAN_ANOMALY":268.2403,"EPHEMERIS_TYPE":0,"NORAD_CAT_ID":48996,"ELEMENT_SET_NO":999,"REV_AT_EPOCH":24218,"BSTAR":0.0001363575,"MEAN_MOTION_DOT":6.5e-7,"MEAN_MOTION_DDOT":0},{"OBJECT_NAME":"ONEWEB-0279","OBJECT_ID":"2021-060AG","EPOCH":"2026-07-06T02:54:14.959872","CLASSIFICATION_TYPE":"U","MEAN_MOTION":13.16593927,"ECCENTRICITY":0.00019103,"INCLINATION":87.9083,"RA_OF_ASC_NODE":225.0117,"ARG_OF_PERICENTER":100.4406,"MEAN_ANOMALY":259.6941,"EPHEMERIS_TYPE":0,"NORAD_CAT_ID":48997,"ELEMENT_SET_NO":999,"REV_AT_EPOCH":24211,"BSTAR":-0.000071626059,"MEAN_MOTION_DOT":-1.5e-7,"MEAN_MOTION_DDOT":0},{"OBJECT_NAME":"ONEWEB-0280","OBJECT_ID":"2021-060AH","EPOCH":"2026-07-06T03:15:54.531648","CLASSIFICATION_TYPE":"U","MEAN_MOTION":13.16594653,"ECCENTRICITY":0.00023838,"INCLINATION":87.9082,"RA_OF_ASC_NODE":225.0131,"ARG_OF_PERICENTER":99.3296,"MEAN_ANOMALY":260.8105,"EPHEMERIS_TYPE":0,"NORAD_CAT_ID":48998,"ELEMENT_SET_NO":999,"REV_AT_EPOCH":24205,"BSTAR":-0.00015824791,"MEAN_MOTION_DOT":-4.8e-7,"MEAN_MOTION_DDOT":0},{"OBJECT_NAME":"ONEWEB-0281","OBJECT_ID":"2021-060AJ","EPOCH":"2026-07-06T03:23:52.987200","CLASSIFICATION_TYPE":"U","MEAN_MOTION":13.16593286,"ECCENTRICITY":0.00021275,"INCLINATION":87.9083,"RA_OF_ASC_NODE":225.0075,"ARG_OF_PERICENTER":93.9394,"MEAN_ANOMALY":266.1981,"EPHEMERIS_TYPE":0,"NORAD_CAT_ID":48999,"ELEMENT_SET_NO":999,"REV_AT_EPOCH":24212,"BSTAR":-0.00026488362,"MEAN_MOTION_DOT":-8.8e-7,"MEAN_MOTION_DDOT":0},{"OBJECT_NAME":"ONEWEB-0282","OBJECT_ID":"2021-060AK","EPOCH":"2026-07-06T04:07:12.569664","CLASSIFICATION_TYPE":"U","MEAN_MOTION":13.16594268,"ECCENTRICITY":0.00021232,"INCLINATION":87.9081,"RA_OF_ASC_NODE":225.0092,"ARG_OF_PERICENTER":98.6521,"MEAN_ANOMALY":261.485,"EPHEMERIS_TYPE":0,"NORAD_CAT_ID":49000,"ELEMENT_SET_NO":999,"REV_AT_EPOCH":24210,"BSTAR":0.00013184405,"MEAN_MOTION_DOT":6.3e-7,"MEAN_MOTION_DDOT":0},{"OBJECT_NAME":"ONEWEB-0283","OBJECT_ID":"2021-060AL","EPOCH":"2026-07-06T03:51:13.968576","CLASSIFICATION_TYPE":"U","MEAN_MOTION":13.16593275,"ECCENTRICITY":0.00019632,"INCLINATION":87.9079,"RA_OF_ASC_NODE":225.0109,"ARG_OF_PERICENTER":98.7816,"MEAN_ANOMALY":261.3537,"EPHEMERIS_TYPE":0,"NORAD_CAT_ID":49001,"ELEMENT_SET_NO":999,"REV_AT_EPOCH":24211,"BSTAR":0.00018280867,"MEAN_MOTION_DOT":8.3e-7,"MEAN_MOTION_DDOT":0},{"OBJECT_NAME":"ONEWEB-0284","OBJECT_ID":"2021-060AM","EPOCH":"2026-07-06T03:42:07.926624","CLASSIFICATION_TYPE":"U","MEAN_MOTION":13.16593424,"ECCENTRICITY":0.00023941,"INCLINATION":87.9082,"RA_OF_ASC_NODE":225.0059,"ARG_OF_PERICENTER":95.9803,"MEAN_ANOMALY":264.16,"EPHEMERIS_TYPE":0,"NORAD_CAT_ID":49002,"ELEMENT_SET_NO":999,"REV_AT_EPOCH":24209,"BSTAR":0.000010969945,"MEAN_MOTION_DOT":1.7e-7,"MEAN_MOTION_DDOT":0},{"OBJECT_NAME":"ONEWEB-0285","OBJECT_ID":"2021-075A","EPOCH":"2026-07-05T23:12:37.706112","CLASSIFICATION_TYPE":"U","MEAN_MOTION":13.12445846,"ECCENTRICITY":0.00017734,"INCLINATION":87.8961,"RA_OF_ASC_NODE":346.9275,"ARG_OF_PERICENTER":92.0759,"MEAN_ANOMALY":268.0573,"EPHEMERIS_TYPE":0,"NORAD_CAT_ID":49075,"ELEMENT_SET_NO":999,"REV_AT_EPOCH":23767,"BSTAR":0.00068399295,"MEAN_MOTION_DOT":0.00000259,"MEAN_MOTION_DDOT":0},{"OBJECT_NAME":"ONEWEB-0286","OBJECT_ID":"2021-075B","EPOCH":"2026-07-05T22:46:47.375616","CLASSIFICATION_TYPE":"U","MEAN_MOTION":13.12443321,"ECCENTRICITY":0.00018302,"INCLINATION":87.895,"RA_OF_ASC_NODE":346.9461,"ARG_OF_PERICENTER":87.2767,"MEAN_ANOMALY":272.8571,"EPHEMERIS_TYPE":0,"NORAD_CAT_ID":49076,"ELEMENT_SET_NO":999,"REV_AT_EPOCH":23702,"BSTAR":-0.00031779165,"MEAN_MOTION_DOT":-0.00000102,"MEAN_MOTION_DDOT":0},{"OBJECT_NAME":"ONEWEB-0287","OBJECT_ID":"2021-075C","EPOCH":"2026-07-05T23:58:17.293728","CLASSIFICATION_TYPE":"U","MEAN_MOTION":13.17648621,"ECCENTRICITY":0.00020704,"INCLINATION":87.9135,"RA_OF_ASC_NODE":2.1227,"ARG_OF_PERICENTER":79.4028,"MEAN_ANOMALY":280.7336,"EPHEMERIS_TYPE":0,"NORAD_CAT_ID":49077,"ELEMENT_SET_NO":999,"REV_AT_EPOCH":23610,"BSTAR":-0.00019843766,"MEAN_MOTION_DOT":-6.4e-7,"MEAN_MOTION_DDOT":0},{"OBJECT_NAME":"ONEWEB-0288","OBJECT_ID":"2021-075D","EPOCH":"2026-07-06T00:02:36.090240","CLASSIFICATION_TYPE":"U","MEAN_MOTION":13.1244102,"ECCENTRICITY":0.0002009,"INCLINATION":87.896,"RA_OF_ASC_NODE":346.9136,"ARG_OF_PERICENTER":89.6071,"MEAN_ANOMALY":270.5288,"EPHEMERIS_TYPE":0,"NORAD_CAT_ID":49078,"ELEMENT_SET_NO":999,"REV_AT_EPOCH":23765,"BSTAR":-0.00064458202,"MEAN_MOTION_DOT":-0.00000219,"MEAN_MOTION_DDOT":0},{"OBJECT_NAME":"ONEWEB-0289","OBJECT_ID":"2021-075E","EPOCH":"2026-07-06T00:53:59.871264","CLASSIFICATION_TYPE":"U","MEAN_MOTION":13.17654247,"ECCENTRICITY":0.00019537,"INCLINATION":87.9144,"RA_OF_ASC_NODE":2.133,"ARG_OF_PERICENTER":100.2388,"MEAN_ANOMALY":259.8964,"EPHEMERIS_TYPE":0,"NORAD_CAT_ID":49079,"ELEMENT_SET_NO":999,"REV_AT_EPOCH":23668,"BSTAR":-0.0023113154,"MEAN_MOTION_DOT":-0.00000885,"MEAN_MOTION_DDOT":0},{"OBJECT_NAME":"ONEWEB-0290","OBJECT_ID":"2021-075F","EPOCH":"2026-07-05T22:25:58.397088","CLASSIFICATION_TYPE":"U","MEAN_MOTION":13.17649999,"ECCENTRICITY":0.00022616,"INCLINATION":87.9145,"RA_OF_ASC_NODE":2.1258,"ARG_OF_PERICENTER":100.9388,"MEAN_ANOMALY":259.1998,"EPHEMERIS_TYPE":0,"NORAD_CAT_ID":49080,"ELEMENT_SET_NO":999,"REV_AT_EPOCH":23608,"BSTAR":0.00013859122,"MEAN_MOTION_DOT":6.7e-7,"MEAN_MOTION_DDOT":0}]}
